H1 CPF  1  DLR 2022 11 01 10  8052 technosat            
H2  1704205 6203    42829 2022 11 01 00 00 00 2022 11 08 00 00 00    60 1 1  0 0 0
H9
10 0 59890  72000.000000  0       6464829.296       -751822.175       2490498.317
10 0 59890  72060.000000  0       6599711.913       -859803.452       2065618.426
10 0 59890  72120.000000  0       6705790.791       -965208.147       1631952.398
10 0 59890  72180.000000  0       6782637.386      -1067336.311       1191343.325
10 0 59890  72240.000000  0       6829953.863      -1165498.660        745664.948
10 0 59890  72300.000000  0       6847574.527      -1259020.737        296813.417
10 0 59890  72360.000000  0       6835466.468      -1347247.025       -153301.174
10 0 59890  72420.000000  0       6793729.448      -1429544.918       -602763.163
10 0 59890  72480.000000  0       6722595.330      -1505308.600      -1049659.687
10 0 59890  72540.000000  0       6622426.824      -1573962.816      -1492089.173
10 0 59890  72600.000000  0       6493715.525      -1634966.469      -1928169.727
10 0 59890  72660.000000  0       6337079.308      -1687816.032      -2356047.377
10 0 59890  72720.000000  0       6153259.168      -1732048.768      -2773904.147
10 0 59890  72780.000000  0       5943115.447      -1767245.737      -3179965.966
10 0 59890  72840.000000  0       5707623.524      -1793034.544      -3572510.308
10 0 59890  72900.000000  0       5447868.987      -1809091.833      -3949873.579
10 0 59890  72960.000000  0       5165042.317      -1815145.507      -4310458.205
10 0 59890  73020.000000  0       4860433.115      -1810976.685      -4652739.385
10 0 59890  73080.000000  0       4535423.890      -1796421.396      -4975271.497
10 0 59890  73140.000000  0       4191483.425      -1771371.970      -5276694.091
10 0 59890  73200.000000  0       3830159.811      -1735778.125      -5555737.437
10 0 59890  73260.000000  0       3453073.219      -1689647.737      -5811227.631
10 0 59890  73320.000000  0       3061908.420      -1633047.311      -6042091.273
10 0 59890  73380.000000  0       2658407.152      -1566102.118      -6247359.716
10 0 59890  73440.000000  0       2244360.243      -1488996.053      -6426172.979
10 0 59890  73500.000000  0       1821599.494      -1401971.162      -6577783.078
10 0 59890  73560.000000  0       1391989.502      -1305326.909      -6701556.839
10 0 59890  73620.000000  0        957419.474      -1199419.170      -6796978.259
10 0 59890  73680.000000  0        519794.945      -1084658.916      -6863650.517
10 0 59890  73740.000000  0         81029.427       -961510.572      -6901297.388
10 0 59890  73800.000000  0       -356963.805       -830490.145      -6909764.201
10 0 59890  73860.000000  0       -792279.929       -692163.097      -6889018.463
10 0 59890  73920.000000  0      -1223030.836       -547141.908      -6839149.940
10 0 59890  73980.000000  0      -1647353.212       -396083.359      -6760370.207
10 0 59890  74040.000000  0      -2063416.501       -239685.605      -6653011.760
10 0 59890  74100.000000  0      -2469430.676        -78685.032      -6517526.651
10 0 59890  74160.000000  0      -2863653.812         86147.124      -6354484.726
10 0 59890  74220.000000  0      -3244399.489        254008.387      -6164571.455
10 0 59890  74280.000000  0      -3610044.059        424068.855      -5948585.319
10 0 59890  74340.000000  0      -3959033.677        595475.193      -5707434.620
10 0 59890  74400.000000  0      -4289890.934        767354.766      -5442133.835
10 0 59890  74460.000000  0      -4601221.187        938819.930      -5153799.676
10 0 59890  74520.000000  0      -4891718.704       1108972.511      -4843646.698
10 0 59890  74580.000000  0      -5160172.387       1276908.435      -4512982.355
10 0 59890  74640.000000  0      -5405471.029       1441722.423      -4163201.622
10 0 59890  74700.000000  0      -5626608.126       1602512.712      -3795781.280
10 0 59890  74760.000000  0      -5822686.291       1758385.836      -3412273.809
10 0 59890  74820.000000  0      -5992921.173       1908461.407      -3014300.907
10 0 59890  74880.000000  0      -6136644.854       2051876.902      -2603546.670
10 0 59890  74940.000000  0      -6253308.733       2187792.420      -2181750.470
10 0 59890  75000.000000  0      -6342485.861       2315395.386      -1750699.537
10 0 59890  75060.000000  0      -6403872.682       2433905.152      -1312221.267
10 0 59890  75120.000000  0      -6437290.210       2542577.458       -868175.336
10 0 59890  75180.000000  0      -6442684.600       2640708.738       -420445.619
10 0 59890  75240.000000  0      -6420127.088       2727640.250         29068.043
10 0 59890  75300.000000  0      -6369813.280       2802761.992        478458.112
10 0 59890  75360.000000  0      -6292061.879       2865516.405        925817.650
10 0 59890  75420.000000  0      -6187312.831       2915401.853       1369248.622
10 0 59890  75480.000000  0      -6056124.854       2951975.778       1806870.200
10 0 59890  75540.000000  0      -5899172.360       2974857.553       2236826.897
10 0 59890  75600.000000  0      -5717241.936       2983731.044       2657296.545
10 0 59890  75660.000000  0      -5511228.301       2978346.870       3066498.183
10 0 59890  75720.000000  0      -5282129.701       2958524.287       3462699.728
10 0 59890  75780.000000  0      -5031042.834       2924152.694       3844225.349
10 0 59890  75840.000000  0      -4759157.357       2875192.818       4209462.515
10 0 59890  75900.000000  0      -4467750.046       2811677.542       4556868.721
10 0 59890  75960.000000  0      -4158178.622       2733712.405       4884977.906
10 0 59890  76020.000000  0      -3831875.224       2641475.710       5192406.497
10 0 59890  76080.000000  0      -3490339.682       2535218.307       5477859.107
10 0 59890  76140.000000  0      -3135132.404       2415263.036       5740133.872
10 0 59890  76200.000000  0      -2767867.079       2282003.751       5978127.259
10 0 59890  76260.000000  0      -2390203.266       2135904.042       6190838.486
10 0 59890  76320.000000  0      -2003838.806       1977495.591       6377373.515
10 0 59890  76380.000000  0      -1610502.101       1807376.224       6536948.534
10 0 59890  76440.000000  0      -1211944.415       1626207.633       6668892.965
10 0 59890  76500.000000  0       -809932.165       1434712.783       6772652.056
10 0 59890  76560.000000  0       -406239.204       1233673.036       6847789.044
10 0 59890  76620.000000  0         -2639.085       1023924.991       6893986.891
10 0 59890  76680.000000  0        399102.634        806357.034       6911049.529
10 0 59890  76740.000000  0        797235.990        581905.647       6898902.643
10 0 59890  76800.000000  0       1190034.126        351551.451       6857594.005
10 0 59890  76860.000000  0       1575800.680        116315.008       6787293.361
10 0 59890  76920.000000  0       1952877.028       -122747.622       6688291.866
10 0 59890  76980.000000  0       2319649.355       -364549.570       6561001.051
10 0 59890  77040.000000  0       2674555.551       -607978.018       6405951.307
10 0 59890  77100.000000  0       3016091.909       -851899.200       6223789.907
10 0 59890  77160.000000  0       3342819.570      -1095163.614       6015278.571
10 0 59890  77220.000000  0       3653370.727      -1336611.409       5781290.533
10 0 59890  77280.000000  0       3946454.445      -1575077.870       5522807.085
10 0 59890  77340.000000  0       4220862.163      -1809398.978       5240913.748
10 0 59890  77400.000000  0       4475472.874      -2038417.054       4936795.999
10 0 59890  77460.000000  0       4709257.968      -2260986.466       4611734.584
10 0 59890  77520.000000  0       4921285.698      -2475979.395       4267100.351
10 0 59890  77580.000000  0       5110725.201      -2682291.567       3904348.621
10 0 59890  77640.000000  0       5276850.073      -2878847.962       3525013.135
10 0 59890  77700.000000  0       5419041.402      -3064608.401       3130699.569
10 0 59890  77760.000000  0       5536790.288      -3238573.035       2723078.773
10 0 59890  77820.000000  0       5629699.852      -3399787.721       2303879.666
10 0 59890  77880.000000  0       5697486.745      -3547349.219       1874881.901
10 0 59890  77940.000000  0       5739982.174      -3680410.263       1437908.171
10 0 59890  78000.000000  0       5757132.267      -3798184.297        994816.186
10 0 59890  78060.000000  0       5748997.842      -3899949.886        547490.620
10 0 59890  78120.000000  0       5715753.751      -3985054.940         97834.917
10 0 59890  78180.000000  0       5657687.628      -4052920.638       -352237.142
10 0 59890  78240.000000  0       5575197.964      -4103044.897       -800809.948
10 0 59890  78300.000000  0       5468791.697      -4135005.440      -1245974.452
10 0 59890  78360.000000  0       5339081.328      -4148462.545      -1685836.594
10 0 59890  78420.000000  0       5186781.405      -4143161.334      -2118525.656
10 0 59890  78480.000000  0       5012704.571      -4118933.654      -2542202.404
10 0 59890  78540.000000  0       4817757.192      -4075699.547      -2955067.122
10 0 59890  78600.000000  0       4602934.512      -4013468.238      -3355367.471
10 0 59890  78660.000000  0       4369315.371      -3932338.660      -3741406.012
10 0 59890  78720.000000  0       4118056.610      -3832499.581      -4111547.447
10 0 59890  78780.000000  0       3850387.149      -3714229.265      -4464225.582
10 0 59890  78840.000000  0       3567601.763      -3577894.666      -4797949.919
10 0 59890  78900.000000  0       3271054.602      -3423950.204      -5111311.840
10 0 59890  78960.000000  0       2962152.517      -3252936.123      -5402990.377
10 0 59890  79020.000000  0       2642348.233      -3065476.488      -5671757.531
10 0 59890  79080.000000  0       2313133.434      -2862276.803      -5916483.206
10 0 59890  79140.000000  0       1976031.748      -2644121.276      -6136139.769
99
